ONEWEB-0361             
1 49287U 21090J   25280.19693183 -.00000021  00000+0 -84541-4 0  9999
2 49287  87.9230 324.8932 0001817  91.4238 268.7104 13.20772270196900
ONEWEB-0362             
1 49288U 21090K   25280.25239619  .00000136  00000+0  30825-3 0  9997
2 49288  87.9275 355.3019 0002047 106.7253 253.4105 13.19728296193555
ONEWEB-0363             
1 49289U 21090L   25280.21270836  .00000106  00000+0  22838-3 0  9992
2 49289  87.9231 324.8862 0001844  85.7363 274.3981 13.20772542196919
ONEWEB-0364             
1 49290U 21090M   25280.09907894  .00000050  00000+0  90919-4 0  9995
2 49290  87.9229 324.9347 0001854  92.5607 267.5738 13.20772112198037
ONEWEB-0365             
1 49291U 21090N   25280.26187524  .00000049  00000+0  88965-4 0  9991
2 49291  87.9282 355.2562 0001849 103.0942 257.0397 13.19723317193061
ONEWEB-0366             
1 49292U 21090P   25280.19201408 -.00000033  00000+0 -12392-3 0  9997
2 49292  87.9058 340.1120 0001904  97.0004 263.1342 13.14502245194327
ONEWEB-0367             
1 49293U 21090Q   25280.21113511  .00000115  00000+0  25090-3 0  9996
2 49293  87.9235 324.8830 0001975 102.2295 257.9059 13.20771551196436
ONEWEB-0368             
1 49294U 21090R   25280.18430466  .00000034  00000+0  52380-4 0  9997
2 49294  87.9231 324.9228 0001106  91.5930 268.5330 13.20771819197581
ONEWEB-0369             
1 49295U 21090S   25280.25713551  .00000010  00000+0 -67057-5 0  9998
2 49295  87.9280 355.2890 0001804 101.7677 258.3658 13.19727235193054
ONEWEB-0370             
1 49296U 21090T   25280.14485215  .00000134  00000+0  29667-3 0  9999
2 49296  87.9234 324.9039 0002241  99.1184 261.0203 13.20772017196466
ONEWEB-0371             
1 49297U 21090U   25280.26502791 -.00000303  00000+0 -78828-3 0  9995
2 49297  87.9276 355.2753 0001900 102.4151 257.7195 13.19724761193095
ONEWEB-0372             
1 49298U 21090V   25280.13364390  .00000127  00000+0  28004-3 0  9996
2 49298  87.9233 324.9082 0001821  99.3339 260.8000 13.20774518196439
ONEWEB-0373             
1 49299U 21090W   25280.16062033  .00000101  00000+0  21564-3 0  9995
2 49299  87.9226 324.9163 0001933  94.0630 266.0724 13.20773266197624
ONEWEB-0374             
1 49300U 21090X   25280.17933835  .00000001  00000+0 -31574-4 0  9999
2 49300  87.9058 340.0904 0001530  82.5227 277.6077 13.14503668194322
ONEWEB-0375             
1 49301U 21090Y   25280.14799785 -.00000818  00000+0 -20450-2 0  9997
2 49301  87.9219 324.8991 0002129  77.1021 283.0350 13.20777563197125
ONEWEB-0376             
1 49302U 21090Z   25280.26346455  .00000065  00000+0  12896-3 0  9991
2 49302  87.9284 355.2586 0001746 107.1612 252.9712 13.19725750193098
