[{"OBJECT_NAME":"ONEWEB-0361","OBJECT_ID":"2021-090J","EPOCH":"2025-10-07T04:43:34.910112","MEAN_MOTION":13.2077227,"ECCENTRICITY":0.00018172,"INCLINATION":87.923,"RA_OF_ASC_NODE":324.8932,"ARG_OF_PERICENTER":91.4238,"MEAN_ANOMALY":268.7104,"EPHEMERIS_TYPE":0,"CLASSIFICATION_TYPE":"U","NORAD_CAT_ID":49287,"ELEMENT_SET_NO":999,"REV_AT_EPOCH":19690,"BSTAR":-8.4541102e-5,"MEAN_MOTION_DOT":-2.1e-7,"MEAN_MOTION_DDOT":0},{"OBJECT_NAME":"ONEWEB-0362","OBJECT_ID":"2021-090K","EPOCH":"2025-10-07T06:03:27.030816","MEAN_MOTION":13.19728296,"ECCENTRICITY":0.00020474,"INCLINATION":87.9275,"RA_OF_ASC_NODE":355.3019,"ARG_OF_PERICENTER":106.7253,"MEAN_ANOMALY":253.4105,"EPHEMERIS_TYPE":0,"CLASSIFICATION_TYPE":"U","NORAD_CAT_ID":49288,"ELEMENT_SET_NO":999,"REV_AT_EPOCH":19355,"BSTAR":0.00030825156,"MEAN_MOTION_DOT":1.36e-6,"MEAN_MOTION_DDOT":0},{"OBJECT_NAME":"ONEWEB-0363","OBJECT_ID":"2021-090L","EPOCH":"2025-10-07T05:06:18.002304","MEAN_MOTION":13.20772542,"ECCENTRICITY":0.00018449,"INCLINATION":87.9231,"RA_OF_ASC_NODE":324.8862,"ARG_OF_PERICENTER":85.7363,"MEAN_ANOMALY":274.3981,"EPHEMERIS_TYPE":0,"CLASSIFICATION_TYPE":"U","NORAD_CAT_ID":49289,"ELEMENT_SET_NO":999,"REV_AT_EPOCH":19691,"BSTAR":0.00022837716,"MEAN_MOTION_DOT":1.06e-6,"MEAN_MOTION_DDOT":0},{"OBJECT_NAME":"ONEWEB-0364","OBJECT_ID":"2021-090M","EPOCH":"2025-10-07T02:22:40.420416","MEAN_MOTION":13.20772112,"ECCENTRICITY":0.00018541,"INCLINATION":87.9229,"RA_OF_ASC_NODE":324.9347,"ARG_OF_PERICENTER":92.5607,"MEAN_ANOMALY":267.5738,"EPHEMERIS_TYPE":0,"CLASSIFICATION_TYPE":"U","NORAD_CAT_ID":49290,"ELEMENT_SET_NO":999,"REV_AT_EPOCH":19803,"BSTAR":9.0918604e-5,"MEAN_MOTION_DOT":5.0e-7,"MEAN_MOTION_DDOT":0},{"OBJECT_NAME":"ONEWEB-0365","OBJECT_ID":"2021-090N","EPOCH":"2025-10-07T06:17:06.020736","MEAN_MOTION":13.19723317,"ECCENTRICITY":0.00018496,"INCLINATION":87.9282,"RA_OF_ASC_NODE":355.2562,"ARG_OF_PERICENTER":103.0942,"MEAN_ANOMALY":257.0397,"EPHEMERIS_TYPE":0,"CLASSIFICATION_TYPE":"U","NORAD_CAT_ID":49291,"ELEMENT_SET_NO":999,"REV_AT_EPOCH":19306,"BSTAR":8.8964819e-5,"MEAN_MOTION_DOT":4.9e-7,"MEAN_MOTION_DDOT":0},{"OBJECT_NAME":"ONEWEB-0366","OBJECT_ID":"2021-090P","EPOCH":"2025-10-07T04:36:30.016512","MEAN_MOTION":13.14502245,"ECCENTRICITY":0.00019047,"INCLINATION":87.9058,"RA_OF_ASC_NODE":340.112,"ARG_OF_PERICENTER":97.0004,"MEAN_ANOMALY":263.1342,"EPHEMERIS_TYPE":0,"CLASSIFICATION_TYPE":"U","NORAD_CAT_ID":49292,"ELEMENT_SET_NO":999,"REV_AT_EPOCH":19432,"BSTAR":-0.00012392326,"MEAN_MOTION_DOT":-3.3e-7,"MEAN_MOTION_DDOT":0},{"OBJECT_NAME":"ONEWEB-0367","OBJECT_ID":"2021-090Q","EPOCH":"2025-10-07T05:04:02.073504","MEAN_MOTION":13.20771551,"ECCENTRICITY":0.00019753,"INCLINATION":87.9235,"RA_OF_ASC_NODE":324.883,"ARG_OF_PERICENTER":102.2295,"MEAN_ANOMALY":257.9059,"EPHEMERIS_TYPE":0,"CLASSIFICATION_TYPE":"U","NORAD_CAT_ID":49293,"ELEMENT_SET_NO":999,"REV_AT_EPOCH":19643,"BSTAR":0.00025090054,"MEAN_MOTION_DOT":1.15e-6,"MEAN_MOTION_DDOT":0},{"OBJECT_NAME":"ONEWEB-0368","OBJECT_ID":"2021-090R","EPOCH":"2025-10-07T04:25:23.922624","MEAN_MOTION":13.20771819,"ECCENTRICITY":0.00011068,"INCLINATION":87.9231,"RA_OF_ASC_NODE":324.9228,"ARG_OF_PERICENTER":91.593,"MEAN_ANOMALY":268.533,"EPHEMERIS_TYPE":0,"CLASSIFICATION_TYPE":"U","NORAD_CAT_ID":49294,"ELEMENT_SET_NO":999,"REV_AT_EPOCH":19758,"BSTAR":5.2380364e-5,"MEAN_MOTION_DOT":3.4e-7,"MEAN_MOTION_DDOT":0},{"OBJECT_NAME":"ONEWEB-0369","OBJECT_ID":"2021-090S","EPOCH":"2025-10-07T06:10:16.508064","MEAN_MOTION":13.19727235,"ECCENTRICITY":0.00018047,"INCLINATION":87.928,"RA_OF_ASC_NODE":355.289,"ARG_OF_PERICENTER":101.7677,"MEAN_ANOMALY":258.3658,"EPHEMERIS_TYPE":0,"CLASSIFICATION_TYPE":"U","NORAD_CAT_ID":49295,"ELEMENT_SET_NO":999,"REV_AT_EPOCH":19305,"BSTAR":-6.705701e-6,"MEAN_MOTION_DOT":1.0e-7,"MEAN_MOTION_DDOT":0},{"OBJECT_NAME":"ONEWEB-0370","OBJECT_ID":"2021-090T","EPOCH":"2025-10-07T03:28:35.225760","MEAN_MOTION":13.20772017,"ECCENTRICITY":0.00022411,"INCLINATION":87.9234,"RA_OF_ASC_NODE":324.9039,"ARG_OF_PERICENTER":99.1184,"MEAN_ANOMALY":261.0203,"EPHEMERIS_TYPE":0,"CLASSIFICATION_TYPE":"U","NORAD_CAT_ID":49296,"ELEMENT_SET_NO":999,"REV_AT_EPOCH":19646,"BSTAR":0.00029666898,"MEAN_MOTION_DOT":1.34e-6,"MEAN_MOTION_DDOT":0},{"OBJECT_NAME":"ONEWEB-0371","OBJECT_ID":"2021-090U","EPOCH":"2025-10-07T06:21:38.411424","MEAN_MOTION":13.19724761,"ECCENTRICITY":0.00019008,"INCLINATION":87.9276,"RA_OF_ASC_NODE":355.2753,"ARG_OF_PERICENTER":102.4151,"MEAN_ANOMALY":257.7195,"EPHEMERIS_TYPE":0,"CLASSIFICATION_TYPE":"U","NORAD_CAT_ID":49297,"ELEMENT_SET_NO":999,"REV_AT_EPOCH":19309,"BSTAR":-0.00078828175,"MEAN_MOTION_DOT":-3.03e-6,"MEAN_MOTION_DDOT":0},{"OBJECT_NAME":"ONEWEB-0372","OBJECT_ID":"2021-090V","EPOCH":"2025-10-07T03:12:26.832960","MEAN_MOTION":13.20774518,"ECCENTRICITY":0.00018218,"INCLINATION":87.9233,"RA_OF_ASC_NODE":324.9082,"ARG_OF_PERICENTER":99.3339,"MEAN_ANOMALY":260.8,"EPHEMERIS_TYPE":0,"CLASSIFICATION_TYPE":"U","NORAD_CAT_ID":49298,"ELEMENT_SET_NO":999,"REV_AT_EPOCH":19643,"BSTAR":0.00028003669,"MEAN_MOTION_DOT":1.27e-6,"MEAN_MOTION_DDOT":0},{"OBJECT_NAME":"ONEWEB-0373","OBJECT_ID":"2021-090W","EPOCH":"2025-10-07T03:51:17.596512","MEAN_MOTION":13.20773266,"ECCENTRICITY":0.00019339,"INCLINATION":87.9226,"RA_OF_ASC_NODE":324.9163,"ARG_OF_PERICENTER":94.063,"MEAN_ANOMALY":266.0724,"EPHEMERIS_TYPE":0,"CLASSIFICATION_TYPE":"U","NORAD_CAT_ID":49299,"ELEMENT_SET_NO":999,"REV_AT_EPOCH":19762,"BSTAR":0.00021563795,"MEAN_MOTION_DOT":1.01e-6,"MEAN_MOTION_DDOT":0},{"OBJECT_NAME":"ONEWEB-0374","OBJECT_ID":"2021-090X","EPOCH":"2025-10-07T04:18:14.833440","MEAN_MOTION":13.14503668,"ECCENTRICITY":0.00015306,"INCLINATION":87.9058,"RA_OF_ASC_NODE":340.0904,"ARG_OF_PERICENTER":82.5227,"MEAN_ANOMALY":277.6077,"EPHEMERIS_TYPE":0,"CLASSIFICATION_TYPE":"U","NORAD_CAT_ID":49300,"ELEMENT_SET_NO":999,"REV_AT_EPOCH":19432,"BSTAR":-3.1574178e-5,"MEAN_MOTION_DOT":1.0e-8,"MEAN_MOTION_DDOT":0},{"OBJECT_NAME":"ONEWEB-0375","OBJECT_ID":"2021-090Y","EPOCH":"2025-10-07T03:33:07.014240","MEAN_MOTION":13.20777563,"ECCENTRICITY":0.00021292,"INCLINATION":87.9219,"RA_OF_ASC_NODE":324.8991,"ARG_OF_PERICENTER":77.1021,"MEAN_ANOMALY":283.035,"EPHEMERIS_TYPE":0,"CLASSIFICATION_TYPE":"U","NORAD_CAT_ID":49301,"ELEMENT_SET_NO":999,"REV_AT_EPOCH":19712,"BSTAR":-0.0020449851,"MEAN_MOTION_DOT":-8.18e-6,"MEAN_MOTION_DDOT":0},{"OBJECT_NAME":"ONEWEB-0376","OBJECT_ID":"2021-090Z","EPOCH":"2025-10-07T06:19:23.337120","MEAN_MOTION":13.1972575,"ECCENTRICITY":0.00017466,"INCLINATION":87.9284,"RA_OF_ASC_NODE":355.2586,"ARG_OF_PERICENTER":107.1612,"MEAN_ANOMALY":252.9712,"EPHEMERIS_TYPE":0,"CLASSIFICATION_TYPE":"U","NORAD_CAT_ID":49302,"ELEMENT_SET_NO":999,"REV_AT_EPOCH":19309,"BSTAR":0.00012895588,"MEAN_MOTION_DOT":6.5e-7,"MEAN_MOTION_DDOT":0}]
